[{"OBJECT_NAME":"STARLINK-6158","OBJECT_ID":"2023-061B","EPOCH":"2026-03-09T22:00:01.999584","MEAN_MOTION":15.15207628,"ECCENTRICITY":0.00022961,"INCLINATION":43.0001,"RA_OF_ASC_NODE":195.9586,"ARG_OF_PERICENTER":267.0912,"MEAN_ANOMALY":36.8876,"EPHEMERIS_TYPE":0,"CLASSIFICATION_TYPE":"U","NORAD_CAT_ID":56375,"ELEMENT_SET_NO":999,"REV_AT_EPOCH":567,"BSTAR":0.064128885,"MEAN_MOTION_DOT":0.01331927,"MEAN_MOTION_DDOT":0},{"OBJECT_NAME":"SPHINX\/FRAZIER","OBJECT_ID":"2025-052Y","EPOCH":"2026-03-09T16:24:33.293952","MEAN_MOTION":15.2264428,"ECCENTRICITY":0.00072416,"INCLINATION":97.4068,"RA_OF_ASC_NODE":323.0895,"ARG_OF_PERICENTER":127.8815,"MEAN_ANOMALY":232.3077,"EPHEMERIS_TYPE":0,"CLASSIFICATION_TYPE":"U","NORAD_CAT_ID":63232,"ELEMENT_SET_NO":999,"REV_AT_EPOCH":5472,"BSTAR":0.00035501675,"MEAN_MOTION_DOT":8.199e-5,"MEAN_MOTION_DDOT":0}]
